CBERS 4                 
1 40336U 14079A   20197.47985963 -.00000024  00000-0  70594-5 0  9994
2 40336  98.5607 268.9203 0001547  63.8366 296.2980 14.35415275293706
CZ-4B R/B               
1 40337U 14079B   20196.22969846  .00000154  00000-0  18798-4 0  9999
2 40337  98.4559  83.7863 0175809 221.5959 137.1772 14.89387921304363
